,Suburb,Rooms,Type,Date,Distance,Postcode,Bedroom,Bathroom,Car,Landsize,Latitude,Longtitude,ParkingArea,Price
11195,Melton South,4,h,3/2/2018,29.8,3338,4,1,2,583,-37.71357,144.57512,Outdoor Stall,410000
11199,Mentone,3,h,3/2/2018,20.0,3194,3,2,2,277,-37.98112,145.05739,Attached Garage,1120000
11200,Mentone,3,h,3/2/2018,20.0,3194,3,2,2,601,-37.98666,145.06145,Indoor,1462000
11201,Mernda,5,h,3/2/2018,25.9,3754,5,2,2,448,-37.60037,145.08468,Parkade,676000
11202,Mill Park,3,h,3/2/2018,17.9,3082,3,2,1,623,-37.67003,145.0482,Underground,592000
11211,Oakleigh,4,h,3/2/2018,12.3,3166,4,2,2,550,-37.90191,145.09857,Indoor,1455000
11215,Point Cook,3,h,3/2/2018,14.7,3030,3,1,1,527,-37.89322,144.74984,Carport,587500
11222,Rowville,4,h,3/2/2018,23.5,3178,4,2,2,664,-37.9302,145.24241,Attached Garage,930000
11225,Seaford,3,h,3/2/2018,35.4,3198,3,1,2,613,-38.11305,145.14558,Carport,606000
11226,Seddon,2,h,3/2/2018,5.1,3011,2,1,2,328,-37.80421,144.88637,Detached Garage,807500
11241,Yarraville,2,h,3/2/2018,6.3,3013,2,1,2,303,-37.82183,144.89488,Attached Garage,755000
11244,Airport West,3,h,3/3/2018,10.4,3042,3,2,1,306,-37.71716,144.8837,Carport,890000
11246,Airport West,3,h,3/3/2018,10.4,3042,3,2,1,303,-37.73174,144.88086,Attached Garage,975000
11247,Airport West,3,t,3/3/2018,10.4,3042,3,2,2,314,-37.71968,144.87756,Indoor,891000
11250,Albert Park,3,h,3/3/2018,3.0,3206,3,2,0,134,-37.84937,144.95414,Attached Garage,1650000
11251,Alphington,4,h,3/3/2018,5.7,3078,4,1,2,574,-37.78292,145.0206,Indoor,1480000
11252,Alphington,4,h,3/3/2018,5.7,3078,4,2,3,1134,-37.78598,145.03305,Parkade,2420000
11253,Altona,3,h,3/3/2018,11.0,3018,3,2,2,690,-37.87025,144.83385,Underground,1815000
11254,Altona Meadows,3,h,3/3/2018,15.5,3028,3,2,1,479,-37.87502,144.77956,Outdoor Stall,600000
11255,Altona North,3,h,3/3/2018,9.4,3025,3,1,2,441,-37.8454,144.84711,Parking Pad,700000
11256,Ardeer,4,h,3/3/2018,12.8,3022,4,1,4,601,-37.77881,144.80431,Carport,624000
11264,Ascot Vale,3,h,3/3/2018,4.3,3032,3,1,1,272,-37.77202,144.90731,Carport,1050000
11266,Ashburton,5,h,3/3/2018,10.2,3147,5,2,2,697,-37.87132,145.07267,Attached Garage,2850500
11267,Ashburton,4,h,3/3/2018,10.2,3147,4,2,2,666,-37.86448,145.09009,Indoor,1400000
11270,Aspendale,3,t,3/3/2018,21.5,3195,3,2,1,284,-38.01646,145.09967,Carport,1095000
11271,Aspendale Gardens,3,h,3/3/2018,21.5,3195,3,2,2,633,-38.02454,145.1156,Detached Garage,1015000
11274,Avondale Heights,3,h,3/3/2018,9.5,3034,3,1,2,604,-37.76978,144.86273,Parkade,904000
11275,Avondale Heights,3,h,3/3/2018,9.5,3034,3,2,1,321,-37.76658,144.85874,Carport,680000
11276,Avondale Heights,3,h,3/3/2018,9.5,3034,3,1,1,581,-37.76038,144.85798,Detached Garage,725000
11280,Balwyn,5,h,3/3/2018,7.9,3103,5,2,2,1105,-37.8092,145.10299,Underground,2800000
11281,Balwyn,5,h,3/3/2018,7.9,3103,5,2,3,678,-37.80596,145.0694,Outdoor Stall,2360000
11283,Balwyn,5,h,3/3/2018,7.9,3103,5,3,3,1527,-37.81191,145.09783,Detached Garage,4000000
11284,Balwyn,4,h,3/3/2018,7.9,3103,4,2,3,525,-37.81705,145.08319,Attached Garage,2140000
11287,Balwyn North,4,t,3/3/2018,9.7,3104,4,2,2,260,-37.79589,145.09988,Carport,1190000
11288,Balwyn North,5,h,3/3/2018,9.7,3104,5,1,2,760,-37.79063,145.09677,Detached Garage,1510000
11290,Balwyn North,4,h,3/3/2018,9.7,3104,4,2,2,576,-37.7864,145.09216,Indoor,2255000
11292,Balwyn North,4,h,3/3/2018,9.7,3104,4,2,2,823,-37.79021,145.06674,Carport,1905000
11296,Beaumaris,4,t,3/3/2018,17.3,3193,4,2,3,353,-37.9904,145.03871,Detached Garage,1820000
11297,Beaumaris,4,h,3/3/2018,17.3,3193,4,2,2,646,-37.97559,145.04546,Attached Garage,1645000
11298,Beaumaris,3,h,3/3/2018,17.3,3193,3,1,2,759,-37.98376,145.04501,Indoor,1674000
11299,Beaumaris,4,h,3/3/2018,17.3,3193,4,2,2,700,-37.98075,145.03856,Parkade,1550000
11301,Beaumaris,4,h,3/3/2018,17.3,3193,4,3,4,689,-37.98124,145.04465,Outdoor Stall,1880000
11302,Bentleigh,4,h,3/3/2018,11.4,3204,4,2,2,654,-37.91756,145.02587,Carport,1625000
11303,Bentleigh,4,h,3/3/2018,11.4,3204,4,2,2,786,-37.9193,145.0385,Detached Garage,1700000
11304,Bentleigh,3,h,3/3/2018,11.4,3204,3,1,2,787,-37.92459,145.04521,Attached Garage,1605000
11305,Bentleigh,3,t,3/3/2018,11.4,3204,3,2,1,359,-37.92025,145.03482,Indoor,1350000
11306,Bentleigh,2,t,3/3/2018,11.4,3204,2,1,1,256,-37.93044,145.04724,Carport,920000
11307,Bentleigh,4,h,3/3/2018,11.4,3204,4,2,1,587,-37.92594,145.0433,Detached Garage,1300000
11311,Bentleigh East,3,h,3/3/2018,13.8,3165,3,1,2,609,-37.92355,145.05562,Carport,1260000
11312,Bentleigh East,2,t,3/3/2018,13.8,3165,2,2,1,190,-37.92438,145.05175,Detached Garage,883000
11313,Bentleigh East,3,h,3/3/2018,13.8,3165,3,1,2,584,-37.91745,145.07208,Attached Garage,1155000
11315,Bentleigh East,4,t,3/3/2018,13.8,3165,4,3,2,354,-37.91372,145.07488,Carport,1282000
11316,Bentleigh East,3,h,3/3/2018,13.8,3165,3,2,4,564,-37.92699,145.08081,Detached Garage,1015000
11317,Bentleigh East,3,h,3/3/2018,13.8,3165,3,1,2,666,-37.92498,145.06907,Attached Garage,1180000
11318,Bentleigh East,5,h,3/3/2018,13.8,3165,5,3,2,400,-37.91653,145.05705,Indoor,1669000
11319,Bentleigh East,3,h,3/3/2018,13.8,3165,3,1,1,595,-37.92083,145.07083,Parkade,1146000
11322,Black Rock,4,h,3/3/2018,17.3,3193,4,2,1,550,-37.97585,145.02455,Parking Pad,1980000
11323,Blackburn,5,h,3/3/2018,13.4,3130,5,2,3,886,-37.82598,145.14717,Carport,1670000
11329,Blackburn North,4,h,3/3/2018,13.4,3130,4,2,2,938,-37.80227,145.16073,Outdoor Stall,1300000
11331,Blackburn North,3,t,3/3/2018,13.4,3130,3,2,2,210,-37.80912,145.14443,Carport,850000
11332,Blackburn South,4,h,3/3/2018,13.4,3130,4,2,1,560,-37.83533,145.14455,Detached Garage,1400000
11333,Blackburn South,3,h,3/3/2018,13.4,3130,3,1,1,542,-37.8442,145.155,Attached Garage,870000
11336,Box Hill,4,h,3/3/2018,10.9,3128,4,3,2,686,-37.82346,145.12631,Underground,2128888
11337,Braybrook,3,h,3/3/2018,8.6,3019,3,1,1,603,-37.78308,144.85297,Carport,801500
11339,Brighton,3,h,3/3/2018,10.5,3186,3,2,2,545,-37.89085,144.99983,Attached Garage,1925000
11340,Brighton,4,h,3/3/2018,10.5,3186,4,3,2,839,-37.92093,145.00499,Indoor,3590000
11341,Brighton,3,h,3/3/2018,10.5,3186,3,1,1,468,-37.88786,144.99853,Parkade,1826000
11343,Brighton,2,h,3/3/2018,10.5,3186,2,1,0,199,-37.90914,145.00477,Detached Garage,1250000
11344,Brighton,4,h,3/3/2018,10.5,3186,4,2,2,564,-37.9065,145.00572,Attached Garage,2500000
11345,Brighton,4,h,3/3/2018,10.5,3186,4,2,1,393,-37.90841,145.00497,Indoor,2300000
11347,Brighton East,4,h,3/3/2018,10.3,3187,4,2,2,612,-37.9076,145.02043,Underground,1840000
11348,Brighton East,4,h,3/3/2018,10.3,3187,4,2,2,604,-37.90684,145.01793,Outdoor Stall,1736000
11349,Brighton East,3,h,3/3/2018,10.3,3187,3,1,2,632,-37.91751,145.02181,Carport,1700000
11350,Brighton East,3,h,3/3/2018,10.3,3187,3,2,2,278,-37.92314,145.01082,Detached Garage,1850000
11351,Brighton East,4,h,3/3/2018,10.3,3187,4,2,2,598,-37.91908,145.01332,Attached Garage,2500000
11352,Brighton East,4,h,3/3/2018,10.3,3187,4,2,2,602,-37.92367,145.00993,Indoor,2070000
11353,Brighton East,4,h,3/3/2018,10.3,3187,4,2,2,550,-37.90945,145.00989,Parkade,1555000
11354,Brighton East,5,h,3/3/2018,10.3,3187,5,3,2,651,-37.91708,145.01154,Carport,2500000
11355,Brighton East,4,h,3/3/2018,10.3,3187,4,3,3,602,-37.91678,145.01675,Detached Garage,2000000
11356,Broadmeadows,3,h,3/3/2018,14.0,3047,3,1,2,566,-37.67841,144.91021,Attached Garage,560000
11359,Broadmeadows,2,h,3/3/2018,14.0,3047,2,1,2,711,-37.68631,144.92135,Carport,711000
11360,Broadmeadows,3,h,3/3/2018,14.0,3047,3,1,0,647,-37.69217,144.91767,Detached Garage,653000
11361,Broadmeadows,3,h,3/3/2018,14.0,3047,3,1,1,237,-37.68957,144.92224,Attached Garage,407500
11362,Broadmeadows,4,h,3/3/2018,14.0,3047,4,1,2,604,-37.68238,144.92685,Carport,560000
11364,Brunswick,4,h,3/3/2018,5.2,3056,4,2,1,373,-37.76289,144.95552,Attached Garage,1500000
11367,Brunswick,3,h,3/3/2018,5.2,3056,3,1,1,392,-37.75703,144.96991,Underground,1100000
11368,Brunswick,4,h,3/3/2018,5.2,3056,4,1,3,520,-37.75663,144.95618,Outdoor Stall,1325000
11371,Brunswick,2,h,3/3/2018,5.2,3056,2,1,0,182,-37.76111,144.97035,Attached Garage,900000
11375,Brunswick,3,h,3/3/2018,5.2,3056,3,1,1,262,-37.77321,144.96039,Attached Garage,1160000
11376,Brunswick,4,h,3/3/2018,5.2,3056,4,2,1,412,-37.76043,144.95136,Indoor,1661000
11380,Brunswick West,3,h,3/3/2018,5.2,3055,3,1,4,532,-37.7575,144.93606,Attached Garage,950000
11382,Brunswick West,3,h,3/3/2018,5.2,3055,3,1,2,316,-37.76347,144.94509,Carport,1250000
11383,Brunswick West,4,h,3/3/2018,5.2,3055,4,1,1,536,-37.77088,144.94737,Detached Garage,1440200
11384,Brunswick West,3,h,3/3/2018,5.2,3055,3,1,0,366,-37.76285,144.94346,Attached Garage,1345000
11386,Bulleen,4,h,3/3/2018,10.8,3105,4,2,4,722,-37.77856,145.09945,Parkade,1337000
11387,Bulleen,4,h,3/3/2018,10.8,3105,4,3,2,358,-37.76281,145.09159,Underground,1310000
11390,Bundoora,3,h,3/3/2018,12.1,3083,3,2,2,652,-37.70299,145.06753,Carport,785000
11392,Burwood,3,h,3/3/2018,10.4,3125,3,1,1,588,-37.84546,145.11967,Attached Garage,1308000
11393,Burwood,3,h,3/3/2018,10.4,3125,3,1,1,674,-37.84533,145.09897,Indoor,1461000
11394,Burwood,3,h,3/3/2018,10.4,3125,3,1,2,772,-37.85628,145.10906,Parkade,1388000
11395,Burwood East,3,h,3/3/2018,14.7,3151,3,1,2,365,-37.85174,145.14003,Underground,980000
11396,Burwood East,4,h,3/3/2018,14.7,3151,4,1,1,645,-37.8576,145.14467,Outdoor Stall,1177000
11397,Burwood East,4,h,3/3/2018,14.7,3151,4,2,2,466,-37.85275,145.16108,Parking Pad,1290000
11398,Burwood East,3,h,3/3/2018,14.7,3151,3,1,2,585,-37.85005,145.15652,Carport,1140000
11399,Burwood East,3,h,3/3/2018,14.7,3151,3,2,2,608,-37.84767,145.15369,Detached Garage,1177000
11400,Camberwell,4,h,3/3/2018,7.7,3124,4,2,3,616,-37.84717,145.09062,Attached Garage,2175000
11403,Camberwell,7,h,3/3/2018,7.7,3124,7,3,3,654,-37.84198,145.09534,Underground,1700000
11406,Camberwell,4,h,3/3/2018,7.7,3124,4,2,4,944,-37.84593,145.09538,Attached Garage,2200000
11407,Camberwell,4,h,3/3/2018,7.7,3124,4,2,2,701,-37.84003,145.0691,Indoor,2175000
11418,Carlton North,2,h,3/3/2018,3.5,3054,2,1,0,96,-37.788,144.96978,Attached Garage,1065000
